[{"OBJECT_NAME":"STARLINK-6346","OBJECT_ID":"2023-094AB","EPOCH":"2026-03-09T22:00:01.999584","MEAN_MOTION":15.04993422,"ECCENTRICITY":3.488e-5,"INCLINATION":43.0012,"RA_OF_ASC_NODE":16.5671,"ARG_OF_PERICENTER":306.4741,"MEAN_ANOMALY":232.086,"EPHEMERIS_TYPE":0,"CLASSIFICATION_TYPE":"U","NORAD_CAT_ID":57243,"ELEMENT_SET_NO":999,"REV_AT_EPOCH":562,"BSTAR":0.0020150457,"MEAN_MOTION_DOT":0.00028977,"MEAN_MOTION_DDOT":0},{"OBJECT_NAME":"STARLING 1","OBJECT_ID":"2023-100C","EPOCH":"2026-03-09T22:50:11.977728","MEAN_MOTION":15.06170613,"ECCENTRICITY":0.00043741,"INCLINATION":99.5156,"RA_OF_ASC_NODE":64.1519,"ARG_OF_PERICENTER":233.3149,"MEAN_ANOMALY":126.7671,"EPHEMERIS_TYPE":0,"CLASSIFICATION_TYPE":"U","NORAD_CAT_ID":57388,"ELEMENT_SET_NO":999,"REV_AT_EPOCH":14496,"BSTAR":0.00020885616,"MEAN_MOTION_DOT":2.969e-5,"MEAN_MOTION_DDOT":0}]
